CCSDS_OMM_VERS = 2.0
CREATION_DATE  = 
ORIGINATOR     = 

OBJECT_NAME    = STARLINK-36912
OBJECT_ID      = 2026-038A
CENTER_NAME    = EARTH
REF_FRAME      = TEME
TIME_SYSTEM    = UTC
MEAN_ELEMENT_THEORY = SGP/SGP4

EPOCH          = 2026-03-08T04:00:01.999584
MEAN_MOTION    = 15.92632732
ECCENTRICITY   = .0001067
INCLINATION    = 97.2745
RA_OF_ASC_NODE = 77.3306
ARG_OF_PERICENTER = 85.0797
MEAN_ANOMALY   = 235.5617

EPHEMERIS_TYPE = 0
CLASSIFICATION_TYPE = U
NORAD_CAT_ID   = 67961
ELEMENT_SET_NO = 999
REV_AT_EPOCH   = 295
BSTAR          = -.53021E-2
MEAN_MOTION_DOT = -.1788038E-1
MEAN_MOTION_DDOT = .88961E-3

CCSDS_OMM_VERS = 2.0
CREATION_DATE  = 
ORIGINATOR     = 

OBJECT_NAME    = STARLINK-36881
OBJECT_ID      = 2026-038B
CENTER_NAME    = EARTH
REF_FRAME      = TEME
TIME_SYSTEM    = UTC
MEAN_ELEMENT_THEORY = SGP/SGP4

EPOCH          = 2026-03-08T04:00:01.999584
MEAN_MOTION    = 15.92725037
ECCENTRICITY   = .0001099
INCLINATION    = 97.2745
RA_OF_ASC_NODE = 77.3315
ARG_OF_PERICENTER = 87.6427
MEAN_ANOMALY   = 235.5978

EPHEMERIS_TYPE = 0
CLASSIFICATION_TYPE = U
NORAD_CAT_ID   = 67962
ELEMENT_SET_NO = 999
REV_AT_EPOCH   = 295
BSTAR          = -.52915E-2
MEAN_MOTION_DOT = -.1792936E-1
MEAN_MOTION_DDOT = .895E-3

CCSDS_OMM_VERS = 2.0
CREATION_DATE  = 
ORIGINATOR     = 

OBJECT_NAME    = STARLINK-36357
OBJECT_ID      = 2026-038C
CENTER_NAME    = EARTH
REF_FRAME      = TEME
TIME_SYSTEM    = UTC
MEAN_ELEMENT_THEORY = SGP/SGP4

EPOCH          = 2026-03-08T04:00:01.999584
MEAN_MOTION    = 15.92982622
ECCENTRICITY   = .0001097
INCLINATION    = 97.2740
RA_OF_ASC_NODE = 77.3347
ARG_OF_PERICENTER = 81.5244
MEAN_ANOMALY   = 248.8214

EPHEMERIS_TYPE = 0
CLASSIFICATION_TYPE = U
NORAD_CAT_ID   = 67963
ELEMENT_SET_NO = 999
REV_AT_EPOCH   = 295
BSTAR          = -.51957E-2
MEAN_MOTION_DOT = -.1784229E-1
MEAN_MOTION_DDOT = .88926E-3

CCSDS_OMM_VERS = 2.0
CREATION_DATE  = 
ORIGINATOR     = 

OBJECT_NAME    = STARLINK-36349
OBJECT_ID      = 2026-038D
CENTER_NAME    = EARTH
REF_FRAME      = TEME
TIME_SYSTEM    = UTC
MEAN_ELEMENT_THEORY = SGP/SGP4

EPOCH          = 2026-03-08T04:00:01.999584
MEAN_MOTION    = 15.92859399
ECCENTRICITY   = .0001158
INCLINATION    = 97.2739
RA_OF_ASC_NODE = 77.3327
ARG_OF_PERICENTER = 80.6852
MEAN_ANOMALY   = 246.1036

EPHEMERIS_TYPE = 0
CLASSIFICATION_TYPE = U
NORAD_CAT_ID   = 67964
ELEMENT_SET_NO = 999
REV_AT_EPOCH   = 295
BSTAR          = -.52703E-2
MEAN_MOTION_DOT = -.179816E-1
MEAN_MOTION_DDOT = .90112E-3

CCSDS_OMM_VERS = 2.0
CREATION_DATE  = 
ORIGINATOR     = 

OBJECT_NAME    = STARLINK-36806
OBJECT_ID      = 2026-038E
CENTER_NAME    = EARTH
REF_FRAME      = TEME
TIME_SYSTEM    = UTC
MEAN_ELEMENT_THEORY = SGP/SGP4

EPOCH          = 2026-03-08T04:00:01.999584
MEAN_MOTION    = 15.93142788
ECCENTRICITY   = .0001071
INCLINATION    = 97.2733
RA_OF_ASC_NODE = 77.3361
ARG_OF_PERICENTER = 83.6692
MEAN_ANOMALY   = 250.8036

EPHEMERIS_TYPE = 0
CLASSIFICATION_TYPE = U
NORAD_CAT_ID   = 67965
ELEMENT_SET_NO = 999
REV_AT_EPOCH   = 295
BSTAR          = -.51925E-2
MEAN_MOTION_DOT = -.1797871E-1
MEAN_MOTION_DDOT = .90348E-3

CCSDS_OMM_VERS = 2.0
CREATION_DATE  = 
ORIGINATOR     = 

OBJECT_NAME    = STARLINK-36820
OBJECT_ID      = 2026-038F
CENTER_NAME    = EARTH
REF_FRAME      = TEME
TIME_SYSTEM    = UTC
MEAN_ELEMENT_THEORY = SGP/SGP4

EPOCH          = 2026-03-08T04:00:01.999584
MEAN_MOTION    = 15.93260980
ECCENTRICITY   = .0001088
INCLINATION    = 97.2732
RA_OF_ASC_NODE = 77.3378
ARG_OF_PERICENTER = 93.4052
MEAN_ANOMALY   = 244.5230

EPHEMERIS_TYPE = 0
CLASSIFICATION_TYPE = U
NORAD_CAT_ID   = 67966
ELEMENT_SET_NO = 999
REV_AT_EPOCH   = 295
BSTAR          = -.51125E-2
MEAN_MOTION_DOT = -.178129E-1
MEAN_MOTION_DDOT = .88908E-3

CCSDS_OMM_VERS = 2.0
CREATION_DATE  = 
ORIGINATOR     = 

OBJECT_NAME    = STARLINK-36819
OBJECT_ID      = 2026-038G
CENTER_NAME    = EARTH
REF_FRAME      = TEME
TIME_SYSTEM    = UTC
MEAN_ELEMENT_THEORY = SGP/SGP4

EPOCH          = 2026-03-08T04:00:01.999584
MEAN_MOTION    = 15.93401655
ECCENTRICITY   = .0001072
INCLINATION    = 97.2731
RA_OF_ASC_NODE = 77.3392
ARG_OF_PERICENTER = 79.2577
MEAN_ANOMALY   = 262.3921

EPHEMERIS_TYPE = 0
CLASSIFICATION_TYPE = U
NORAD_CAT_ID   = 67967
ELEMENT_SET_NO = 999
REV_AT_EPOCH   = 295
BSTAR          = -.50954E-2
MEAN_MOTION_DOT = -.1788301E-1
MEAN_MOTION_DDOT = .89693E-3

CCSDS_OMM_VERS = 2.0
CREATION_DATE  = 
ORIGINATOR     = 

OBJECT_NAME    = STARLINK-36812
OBJECT_ID      = 2026-038H
CENTER_NAME    = EARTH
REF_FRAME      = TEME
TIME_SYSTEM    = UTC
MEAN_ELEMENT_THEORY = SGP/SGP4

EPOCH          = 2026-03-08T04:00:01.999584
MEAN_MOTION    = 15.93514394
ECCENTRICITY   = .0001095
INCLINATION    = 97.2726
RA_OF_ASC_NODE = 77.3402
ARG_OF_PERICENTER = 83.7288
MEAN_ANOMALY   = 261.0985

EPHEMERIS_TYPE = 0
CLASSIFICATION_TYPE = U
NORAD_CAT_ID   = 67968
ELEMENT_SET_NO = 999
REV_AT_EPOCH   = 295
BSTAR          = -.50562E-2
MEAN_MOTION_DOT = -.1785062E-1
MEAN_MOTION_DDOT = .89494E-3

CCSDS_OMM_VERS = 2.0
CREATION_DATE  = 
ORIGINATOR     = 

OBJECT_NAME    = STARLINK-36709
OBJECT_ID      = 2026-038J
CENTER_NAME    = EARTH
REF_FRAME      = TEME
TIME_SYSTEM    = UTC
MEAN_ELEMENT_THEORY = SGP/SGP4

EPOCH          = 2026-03-08T04:00:01.999584
MEAN_MOTION    = 15.93796784
ECCENTRICITY   = .000101
INCLINATION    = 97.2727
RA_OF_ASC_NODE = 77.3437
ARG_OF_PERICENTER = 73.8349
MEAN_ANOMALY   = 278.6088

EPHEMERIS_TYPE = 0
CLASSIFICATION_TYPE = U
NORAD_CAT_ID   = 67969
ELEMENT_SET_NO = 999
REV_AT_EPOCH   = 295
BSTAR          = -.49686E-2
MEAN_MOTION_DOT = -.1780267E-1
MEAN_MOTION_DDOT = .89308E-3

CCSDS_OMM_VERS = 2.0
CREATION_DATE  = 
ORIGINATOR     = 

OBJECT_NAME    = STARLINK-36319
OBJECT_ID      = 2026-038K
CENTER_NAME    = EARTH
REF_FRAME      = TEME
TIME_SYSTEM    = UTC
MEAN_ELEMENT_THEORY = SGP/SGP4

EPOCH          = 2026-03-08T04:00:01.999584
MEAN_MOTION    = 15.93645367
ECCENTRICITY   = .0001068
INCLINATION    = 97.2724
RA_OF_ASC_NODE = 77.3417
ARG_OF_PERICENTER = 76.2689
MEAN_ANOMALY   = 272.3392

EPHEMERIS_TYPE = 0
CLASSIFICATION_TYPE = U
NORAD_CAT_ID   = 67970
ELEMENT_SET_NO = 999
REV_AT_EPOCH   = 292
BSTAR          = -.49669E-2
MEAN_MOTION_DOT = -.1765797E-1
MEAN_MOTION_DDOT = .8782E-3

CCSDS_OMM_VERS = 2.0
CREATION_DATE  = 
ORIGINATOR     = 

OBJECT_NAME    = STARLINK-36710
OBJECT_ID      = 2026-038L
CENTER_NAME    = EARTH
REF_FRAME      = TEME
TIME_SYSTEM    = UTC
MEAN_ELEMENT_THEORY = SGP/SGP4

EPOCH          = 2026-03-08T04:00:01.999584
MEAN_MOTION    = 15.93964983
ECCENTRICITY   = .0000994
INCLINATION    = 97.2721
RA_OF_ASC_NODE = 77.3456
ARG_OF_PERICENTER = 82.4920
MEAN_ANOMALY   = 274.6287

EPHEMERIS_TYPE = 0
CLASSIFICATION_TYPE = U
NORAD_CAT_ID   = 67971
ELEMENT_SET_NO = 999
REV_AT_EPOCH   = 295
BSTAR          = -.48918E-2
MEAN_MOTION_DOT = -.1768422E-1
MEAN_MOTION_DDOT = .88357E-3

CCSDS_OMM_VERS = 2.0
CREATION_DATE  = 
ORIGINATOR     = 

OBJECT_NAME    = STARLINK-36894
OBJECT_ID      = 2026-038M
CENTER_NAME    = EARTH
REF_FRAME      = TEME
TIME_SYSTEM    = UTC
MEAN_ELEMENT_THEORY = SGP/SGP4

EPOCH          = 2026-03-08T04:00:01.999584
MEAN_MOTION    = 15.94113380
ECCENTRICITY   = .0001134
INCLINATION    = 97.2716
RA_OF_ASC_NODE = 77.3472
ARG_OF_PERICENTER = 70.1781
MEAN_ANOMALY   = 290.7807

EPHEMERIS_TYPE = 0
CLASSIFICATION_TYPE = U
NORAD_CAT_ID   = 67972
ELEMENT_SET_NO = 999
REV_AT_EPOCH   = 295
BSTAR          = -.48755E-2
MEAN_MOTION_DOT = -.1776258E-1
MEAN_MOTION_DDOT = .89227E-3

