STARLINK-36912          
1 67961U 26038A   26067.16668981 -.01788038  88961-3 -53021-2 0  9999
2 67961  97.2745  77.3306 0001067  85.0797 235.5617 15.92632732  2956
STARLINK-36881          
1 67962U 26038B   26067.16668981 -.01792936  89500-3 -52915-2 0  9993
2 67962  97.2745  77.3315 0001099  87.6427 235.5978 15.92725037  2951
STARLINK-36357          
1 67963U 26038C   26067.16668981 -.01784229  88926-3 -51957-2 0  9996
2 67963  97.2740  77.3347 0001097  81.5244 248.8214 15.92982622  2955
STARLINK-36349          
1 67964U 26038D   26067.16668981 -.01798160  90112-3 -52703-2 0  9996
2 67964  97.2739  77.3327 0001158  80.6852 246.1036 15.92859399  2952
STARLINK-36806          
1 67965U 26038E   26067.16668981 -.01797871  90348-3 -51925-2 0  9991
2 67965  97.2733  77.3361 0001071  83.6692 250.8036 15.93142788  2954
STARLINK-36820          
1 67966U 26038F   26067.16668981 -.01781290  88908-3 -51125-2 0  9991
2 67966  97.2732  77.3378 0001088  93.4052 244.5230 15.93260980  2950
STARLINK-36819          
1 67967U 26038G   26067.16668981 -.01788301  89693-3 -50954-2 0  9993
2 67967  97.2731  77.3392 0001072  79.2577 262.3921 15.93401655  2954
STARLINK-36812          
1 67968U 26038H   26067.16668981 -.01785062  89494-3 -50562-2 0  9999
2 67968  97.2726  77.3402 0001095  83.7288 261.0985 15.93514394  2956
STARLINK-36709          
1 67969U 26038J   26067.16668981 -.01780267  89308-3 -49686-2 0  9991
2 67969  97.2727  77.3437 0001010  73.8349 278.6088 15.93796784  2954
STARLINK-36319          
1 67970U 26038K   26067.16668981 -.01765797  87820-3 -49669-2 0  9992
2 67970  97.2724  77.3417 0001068  76.2689 272.3392 15.93645367  2924
STARLINK-36710          
1 67971U 26038L   26067.16668981 -.01768422  88357-3 -48918-2 0  9993
2 67971  97.2721  77.3456 0000994  82.4920 274.6287 15.93964983  2958
STARLINK-36894          
1 67972U 26038M   26067.16668981 -.01776258  89227-3 -48755-2 0  9996
2 67972  97.2716  77.3472 0001134  70.1781 290.7807 15.94113380  2952
